{
    "links": {
        "self": "http://www.neowsapp.com/rest/v1/neo/3732896?api_key=iIulBulltgU6a56xZRHN4H3l9WmuAYTsLGpBGhQ2"
    },
    "id": "3732896",
    "neo_reference_id": "3732896",
    "name": "(2015 UG67)",
    "designation": "2015 UG67",
    "nasa_jpl_url": "http://ssd.jpl.nasa.gov/sbdb.cgi?sstr=3732896",
    "absolute_magnitude_h": 20.9,
    "estimated_diameter": {
        "kilometers": {
            "estimated_diameter_min": 0.1756123185,
            "estimated_diameter_max": 0.3926810818
        },
        "meters": {
            "estimated_diameter_min": 175.6123184804,
            "estimated_diameter_max": 392.6810818086
        },
        "miles": {
            "estimated_diameter_min": 0.1091204019,
            "estimated_diameter_max": 0.2440006365
        },
        "feet": {
            "estimated_diameter_min": 576.1559189633,
            "estimated_diameter_max": 1288.3238004408
        }
    },
    "is_potentially_hazardous_asteroid": false,
    "close_approach_data": [
        {
            "close_approach_date": "2015-11-17",
            "close_approach_date_full": "2015-Nov-17 18:14",
            "epoch_date_close_approach": 1447784040000,
            "relative_velocity": {
                "kilometers_per_second": "20.6689500942",
                "kilometers_per_hour": "74408.2203391981",
                "miles_per_hour": "46234.3744657645"
            },
            "miss_distance": {
                "astronomical": "0.4232075602",
                "lunar": "164.6277409178",
                "kilometers": "63310949.573816774",
                "miles": "39339599.8636845212"
            },
            "orbiting_body": "Earth"
        },
        {
            "close_approach_date": "2019-04-24",
            "close_approach_date_full": "2019-Apr-24 16:05",
            "epoch_date_close_approach": 1556121900000,
            "relative_velocity": {
                "kilometers_per_second": "28.9769292055",
                "kilometers_per_hour": "104316.9451398425",
                "miles_per_hour": "64818.4929398093"
            },
            "miss_distance": {
                "astronomical": "0.3703378004",
                "lunar": "144.0614043556",
                "kilometers": "55401746.120325148",
                "miles": "34425048.7284491224"
            },
            "orbiting_body": "Earth"
        },
        {
            "close_approach_date": "2031-11-10",
            "close_approach_date_full": "2031-Nov-10 15:01",
            "epoch_date_close_approach": 1952089260000,
            "relative_velocity": {
                "kilometers_per_second": "26.6252187266",
                "kilometers_per_hour": "95850.7874158093",
                "miles_per_hour": "59557.9517695622"
            },
            "miss_distance": {
                "astronomical": "0.2506495238",
                "lunar": "97.5026647582",
                "kilometers": "37496634.876994306",
                "miles": "23299328.5083451828"
            },
            "orbiting_body": "Earth"
        }
    ],
    "orbital_data": {
        "orbit_id": "9",
        "orbit_determination_date": "2017-04-06 08:31:06",
        "first_observation_date": "2015-10-10",
        "last_observation_date": "2015-11-19",
        "data_arc_in_days": 40,
        "observations_used": 50,
        "orbit_uncertainty": "7",
        "minimum_orbit_intersection": ".239069",
        "jupiter_tisserand_invariant": "3.076",
        "epoch_osculation": "2459000.5",
        "eccentricity": ".7753271447996047",
        "semi_major_axis": "2.168315645353473",
        "inclination": "33.92515169742016",
        "ascending_node_longitude": "26.65043168699446",
        "orbital_period": "1166.224556972855",
        "perihelion_distance": ".4871616670172525",
        "perihelion_argument": "127.3334088301265",
        "aphelion_distance": "3.849469623689694",
        "perihelion_time": "2458573.514265972951",
        "mean_anomaly": "131.8055457936268",
        "mean_motion": ".3086884064030042",
        "equinox": "J2000",
        "orbit_class": {
            "orbit_class_type": "APO",
            "orbit_class_description": "Near-Earth asteroid orbits which cross the Earth’s orbit similar to that of 1862 Apollo",
            "orbit_class_range": "a (semi-major axis) > 1.0 AU; q (perihelion) < 1.017 AU"
        }
    },
    "is_sentry_object": false
}